NORAD_CAT_ID,OBJECT_NAME,OBJECT_TYPE,EPOCH,MEAN_MOTION,ECCENTRICITY,INCLINATION,RA_OF_ASC_NODE,ARG_OF_PERICENTER,MEAN_ANOMALY,BSTAR,MEAN_MOTION_DOT,MEAN_MOTION_DDOT,TLE_LINE0,TLE_LINE1,TLE_LINE2,SEMIMAJOR_AXIS,PERIOD,APOGEE,PERIGEE,DECAYED
52295.0,STARLINK-3765,PAYLOAD,2023-12-16 14:24:24,15.0884583,0.0001227,53.2179,153.7119,82.2724,277.8408,-0.00013813,-2.486e-05,0.0,0 STARLINK-3765,1 52295U 22041AL  23350.60028415 -.00002486  00000-0 -13813-3 0  9992,2 52295  53.2179 153.7119 0001227  82.2724 277.8408 15.08845830 91600,6917.863,95.437,540.576,538.879,0.0
52295.0,STARLINK-3765,PAYLOAD,2023-12-16 17:35:10,15.08848043,0.0001296,53.2167,153.1135,84.3538,275.7602,-0.00011439,-2.108e-05,0.0,0 STARLINK-3765,1 52295U 22041AL  23350.73276110 -.00002108  00000-0 -11439-3 0  9996,2 52295  53.2167 153.1135 0001296  84.3538 275.7602 15.08848043 92840,6917.856,95.437,540.617,538.824,0.0
52295.0,STARLINK-3765,PAYLOAD,2023-12-17 14:15:11,15.08834905,0.0001313,53.2167,149.2471,93.7668,266.3474,0.0001427,1.984e-05,0.0,0 STARLINK-3765,1 52295U 22041AL  23351.59388406  .00001984  00000-0  14270-3 0  9998,2 52295  53.2167 149.2471 0001313  93.7668 266.3474 15.08834905 91751,6917.896,95.438,540.669,538.853,0.0
52295.0,STARLINK-3765,PAYLOAD,2023-12-17 17:25:57,15.08839371,0.0001337,53.2163,148.6528,92.5959,267.5186,0.00018042,2.585e-05,0.0,0 STARLINK-3765,1 52295U 22041AL  23351.72636161  .00002585  00000-0  18042-3 0  9996,2 52295  53.2163 148.6528 0001337  92.5959 267.5186 15.08839371 91776,6917.882,95.438,540.672,538.822,0.0
52295.0,STARLINK-3765,PAYLOAD,2023-12-18 14:05:58,15.08844487,0.000133,53.2163,144.7868,93.6358,266.4787,0.00015079,2.113e-05,0.0,0 STARLINK-3765,1 52295U 22041AL  23352.58748064  .00002113  00000-0  15079-3 0  9991,2 52295  53.2163 144.7868 0001330  93.6358 266.4787 15.08844487 91902,6917.867,95.437,540.652,538.812,0.0
52295.0,STARLINK-3765,PAYLOAD,2023-12-18 17:16:44,15.08849711,0.0001321,53.2158,144.1918,92.4171,267.6973,0.00020124,2.917e-05,0.0,0 STARLINK-3765,1 52295U 22041AL  23352.71995974  .00002917  00000-0  20124-3 0  9999,2 52295  53.2158 144.1918 0001321  92.4171 267.6973 15.08849711 93149,6917.851,95.437,540.63,538.802,0.0
52295.0,STARLINK-3765,PAYLOAD,2023-12-19 13:56:45,15.08838083,0.0001335,53.2154,140.3261,107.2073,252.9066,-4.3587e-05,-9.81e-06,0.0,0 STARLINK-3765,1 52295U 22041AL  23353.58108483 -.00000981  00000-0 -43587-4 0  9996,2 52295  53.2154 140.3261 0001335 107.2073 252.9066 15.08838083 92054,6917.886,95.438,540.675,538.828,0.0
52295.0,STARLINK-3765,PAYLOAD,2023-12-19 17:07:32,15.08837665,0.000129,53.2159,139.7301,101.7887,258.325,-5.1373e-05,-1.105e-05,0.0,0 STARLINK-3765,1 52295U 22041AL  23353.71356497 -.00001105  00000-0 -51373-4 0  9992,2 52295  53.2159 139.7301 0001290 101.7887 258.3250 15.08837665 93295,6917.888,95.438,540.645,538.86,0.0
52295.0,STARLINK-3765,PAYLOAD,2023-12-20 13:47:32,15.08841708,0.0001231,53.2164,135.8641,106.5075,253.6053,-0.00018812,-3.281e-05,0.0,0 STARLINK-3765,1 52295U 22041AL  23354.57468545 -.00003281  00000-0 -18812-3 0  9992,2 52295  53.2164 135.8641 0001231 106.5075 253.6053 15.08841708 92204,6917.875,95.437,540.592,538.889,0.0
52295.0,STARLINK-3765,PAYLOAD,2023-12-20 16:58:19,15.08842861,0.0001214,53.2163,135.271,89.0947,271.0184,-4.1912e-05,-9.55e-06,0.0,0 STARLINK-3765,1 52295U 22041AL  23354.70716588 -.00000955  00000-0 -41912-4 0  9993,2 52295  53.2163 135.2710 0001214  89.0947 271.0184 15.08842861 92220,6917.872,95.437,540.576,538.897,0.0
52295.0,STARLINK-3765,PAYLOAD,2023-12-21 13:38:20,15.08839167,0.0001221,53.2162,131.4064,86.487,273.6262,0.00014267,1.983e-05,0.0,0 STARLINK-3765,1 52295U 22041AL  23355.56829056  .00001983  00000-0  14267-3 0  9995,2 52295  53.2162 131.4064 0001221  86.4870 273.6262 15.08839167 92357,6917.883,95.438,540.593,538.903,0.0
52295.0,STARLINK-3765,PAYLOAD,2023-12-21 15:13:43,15.08841908,0.0001553,53.2171,131.1082,65.3909,294.7245,0.00017179,2.447e-05,0.0,0 STARLINK-3765,1 52295U 22041AL  23355.63453097  .00002447  00000-0  17179-3 0  9992,2 52295  53.2171 131.1082 0001553  65.3909 294.7245 15.08841908 93588,6917.875,95.437,540.814,538.665,0.0
52295.0,STARLINK-3765,PAYLOAD,2023-12-22 13:29:07,15.08842784,0.0001601,53.2169,126.9472,68.4119,291.7043,0.00012432,1.691e-05,0.0,0 STARLINK-3765,1 52295U 22041AL  23356.56189254  .00001691  00000-0  12432-3 0  9993,2 52295  53.2169 126.9472 0001601  68.4119 291.7043 15.08842784 92508,6917.872,95.437,540.844,538.629,0.0
52295.0,STARLINK-3765,PAYLOAD,2023-12-22 16:39:53,15.08846121,0.0001714,53.2173,126.3505,62.0627,298.0539,0.00017531,2.504e-05,0.0,0 STARLINK-3765,1 52295U 22041AL  23356.69437124  .00002504  00000-0  17531-3 0  9998,2 52295  53.2173 126.3505 0001714  62.0627 298.0539 15.08846121 93749,6917.862,95.437,540.912,538.541,0.0
52295.0,STARLINK-3765,PAYLOAD,2023-12-23 08:33:45,15.08839833,0.0001271,53.2177,123.3779,79.34,280.7735,1.5706e-05,-3.8e-07,0.0,0 STARLINK-3765,1 52295U 22041AL  23357.35677320 -.00000038  00000-0  15706-4 0  9990,2 52295  53.2177 123.3779 0001271  79.3400 280.7735 15.08839833 93840,6917.881,95.438,540.625,538.867,0.0
52295.0,STARLINK-3765,PAYLOAD,2023-12-23 13:19:54,15.08843785,0.0001467,53.2168,122.4901,70.9671,289.148,4.2864e-05,3.94e-06,0.0,0 STARLINK-3765,1 52295U 22041AL  23357.55549146  .00000394  00000-0  42864-4 0  9995,2 52295  53.2168 122.4901 0001467  70.9671 289.1480 15.08843785 92650,6917.869,95.437,540.749,538.719,0.0
52295.0,STARLINK-3765,PAYLOAD,2023-12-23 14:55:17,15.08845101,0.000156,53.2167,122.1924,68.4553,291.6605,7.7404e-05,9.44e-06,0.0,0 STARLINK-3765,1 52295U 22041AL  23357.62173123  .00000944  00000-0  77404-4 0  9990,2 52295  53.2167 122.1924 0001560  68.4553 291.6605 15.08845101 92668,6917.865,95.437,540.809,538.651,0.0
52295.0,STARLINK-3765,PAYLOAD,2023-12-24 11:35:18,15.08846099,0.0001481,53.2169,118.3278,59.2095,300.9043,8.3304e-05,1.038e-05,0.0,0 STARLINK-3765,1 52295U 22041AL  23358.48285218  .00001038  00000-0  83304-4 0  9995,2 52295  53.2169 118.3278 0001481  59.2095 300.9043 15.08846099 94018,6917.862,95.437,540.751,538.702,0.0
52295.0,STARLINK-3765,PAYLOAD,2023-12-24 14:46:04,15.08849727,0.0001494,53.2168,117.7321,67.7241,292.3909,0.00013783,1.907e-05,0.0,0 STARLINK-3765,1 52295U 22041AL  23358.61532966  .00001907  00000-0  13783-3 0  9993,2 52295  53.2168 117.7321 0001494  67.7241 292.3909 15.08849727 92812,6917.851,95.437,540.749,538.682,0.0
52295.0,STARLINK-3765,PAYLOAD,2023-12-25 14:36:51,15.08843515,0.000143,53.2169,113.2676,102.9298,257.1853,5.726e-05,6.24e-06,0.0,0 STARLINK-3765,1 52295U 22041AL  23359.60892993  .00000624  00000-0  57260-4 0  9996,2 52295  53.2169 113.2676 0001430 102.9298 257.1853 15.08843515 92963,6917.87,95.437,540.724,538.745,0.0
52295.0,STARLINK-3765,PAYLOAD,2023-12-26 11:16:52,15.08834294,0.0001478,53.2176,109.4054,104.353,255.7626,-3.41e-05,-8.31e-06,0.0,0 STARLINK-3765,1 52295U 22041AL  23360.47005719 -.00000831  00000-0 -34100-4 0  9995,2 52295  53.2176 109.4054 0001478 104.3530 255.7626 15.08834294 94312,6917.898,95.438,540.785,538.74,0.0
52295.0,STARLINK-3765,PAYLOAD,2023-12-26 12:52:15,15.08837298,0.0001534,53.2172,109.1071,105.3961,254.7201,3.16e-06,-2.38e-06,0.0,0 STARLINK-3765,1 52295U 22041AL  23360.53629588 -.00000238  00000-0  31600-5 0  9991,2 52295  53.2172 109.1071 0001534 105.3961 254.7201 15.08837298 93107,6917.889,95.438,540.815,538.692,0.0
52295.0,STARLINK-3765,PAYLOAD,2023-12-27 12:43:03,15.08841022,0.0001457,53.217,104.6457,103.6235,256.492,0.00012197,1.654e-05,0.0,0 STARLINK-3765,1 52295U 22041AL  23361.52989603  .00001654  00000-0  12197-3 0  9998,2 52295  53.2170 104.6457 0001457 103.6235 256.4920 15.08841022 93255,6917.877,95.437,540.75,538.734,0.0
52295.0,STARLINK-3765,PAYLOAD,2023-12-28 14:09:13,15.08842585,0.0001342,53.2171,99.888,89.6862,270.4284,0.00013328,1.834e-05,0.0,0 STARLINK-3765,1 52295U 22041AL  23362.58973866  .00001834  00000-0  13328-3 0  9996,2 52295  53.2171  99.8880 0001342  89.6862 270.4284 15.08842585 93415,6917.872,95.437,540.666,538.809,0.0
52295.0,STARLINK-3765,PAYLOAD,2023-12-29 10:49:14,15.0883913,0.0001265,53.2174,96.0226,78.187,281.9264,7.0237e-05,8.3e-06,0.0,0 STARLINK-3765,1 52295U 22041AL  23363.45086341  .00000830  00000-0  70237-4 0  9994,2 52295  53.2174  96.0226 0001265  78.1870 281.9264 15.08839130 94763,6917.883,95.438,540.623,538.873,0.0
52295.0,STARLINK-3765,PAYLOAD,2023-12-29 14:00:00,15.08839935,0.0001463,53.2171,95.4283,77.0839,283.0317,9.9713e-05,1.299e-05,0.0,0 STARLINK-3765,1 52295U 22041AL  23363.58334226  .00001299  00000-0  99713-4 0  9996,2 52295  53.2171  95.4283 0001463  77.0839 283.0317 15.08839935 93561,6917.881,95.438,540.758,538.734,0.0
52295.0,STARLINK-3765,PAYLOAD,2023-12-30 12:15:24,15.08841004,0.0001407,53.217,91.2652,75.7676,284.3472,0.00017452,2.491e-05,0.0,0 STARLINK-3765,1 52295U 22041AL  23364.51069957  .00002491  00000-0  17452-3 0  9990,2 52295  53.2170  91.2652 0001407  75.7676 284.3472 15.08841004 94923,6917.877,95.437,540.716,538.769,0.0
52295.0,STARLINK-3765,PAYLOAD,2023-12-31 12:06:12,15.08836766,0.0001535,53.2168,86.8052,68.3322,291.7833,4.6162e-05,4.47e-06,0.0,0 STARLINK-3765,1 52295U 22041AL  23365.50430603  .00000447  00000-0  46162-4 0  9990,2 52295  53.2168  86.8052 0001535  68.3322 291.7833 15.08836766 95071,6917.89,95.438,540.817,538.693,0.0
52295.0,STARLINK-3765,PAYLOAD,2024-01-01 10:21:35,15.08842947,0.0001349,53.2165,82.6419,80.5595,279.555,5.2761e-05,5.52e-06,0.0,0 STARLINK-3765,1 52295U 22041AL  24001.43166061  .00000552  00000-0  52761-4 0  9993,2 52295  53.2165  82.6419 0001349  80.5595 279.5550 15.08842947 93997,6917.871,95.437,540.67,538.803,0.0
52295.0,STARLINK-3765,PAYLOAD,2024-01-02 10:12:23,15.08834236,0.0001297,53.2169,78.1822,76.2761,283.8375,5.1578e-05,5.33e-06,0.0,0 STARLINK-3765,1 52295U 22041AL  24002.42526729  .00000533  00000-0  51578-4 0  9998,2 52295  53.2169  78.1822 0001297  76.2761 283.8375 15.08834236 95366,6917.898,95.438,540.66,538.866,0.0
